TEVEL2-7                
1 63238U 25052AE  26068.66113295  .00019244  00000+0  69668-3 0  9998
2 63238  97.4054 324.3041 0008105 124.6830 235.5175 15.28414096 54803
STARLINK-36217          
1 67120U 25299U   26068.30398888  .00029489  00000+0  10761-2 0  9990
2 67120  42.9979 171.4782 0002801 290.6433  69.4118 15.27601297 13054
